RADCAL                  
1 22698U 93041A   12014.16486257  .00000248  00000-0  99640-4 0  1023
2 22698  89.5468 338.2574 0091244 123.7970 237.1971 14.22929179963071
STRV 1A                 
1 23125U 94034B   12014.47195142  .00002023  00000-0  48830-3 0  9391
2 23125   7.4003 288.7011 6789230 233.8329  43.1963  2.91888390166592
STRV 1B                 
1 23126U 94034C   12014.07343113  .00002090  00000-0  41241-3 0  9923
2 23126   7.1435 220.6193 6732073   9.4620 358.6809  3.00365666169424
REX 2                   
1 23814U 96014A   12014.48148401  .00000124  00000-0  48933-4 0  4696
2 23814  90.1517 288.9590 0024285 109.9657 250.4154 14.23998847823494
COSMOS 2346             
1 24953U 97052A   12014.88707291  .00000034  00000-0  18577-4 0  3247
2 24953  82.9212 330.8571 0040674   8.0978 352.0824 13.79464926720452
ARGOS                   
1 25634U 99008A   12014.26649535  .00000178  00000-0  10671-3 0  4960
2 25634  98.8789  75.1262 0010636 136.7544 223.4456 14.18997001667500
HELIOS 1B               
1 25977U 99064A   12015.19253062  .00000662  00000-0  98462-4 0  5257
2 25977  98.2793  62.2245 0001273 148.7301 211.3982 14.78403163651069
MTI                     
1 26102U 00014A   12015.10853005  .00003842  00000-0  20796-3 0  5368
2 26102  97.3372 151.0462 0019777  86.2441  28.4772 15.15051826651780
STRV 1C                 
1 26610U 00072C   12011.28550816  .00000144  00000-0  00000+0 0  3020
2 26610   7.0728 330.4201 7347995 322.6720   4.0689  2.03464802 82927
MIDSTAR-1               
1 30773U 07006B   12014.20764601  .00003254  00000-0  13314-3 0  3888
2 30773  46.0749  18.5391 0009467 243.2247 116.7682 15.26717201270348
CFESAT                  
1 30777U 07006F   12014.16633877  .00003865  00000-0  26350-3 0  2664
2 30777  35.4304 151.3016 0004126  75.0698 285.0461 15.05854875266761
NFIRE                   
1 31140U 07014A   12014.81479874  .00007624  00000-0  16281-3 0  6859
2 31140  48.2238 229.9189 0008709 128.7507 231.4188 15.45713872268413
SPIRALE A               
1 33751U 09008C   12013.62786050  .00011343  00000-0  81761-3 0  7409
2 33751   1.8995 202.0158 6734610   4.3817 359.3564  3.02912562 25520
SPIRALE B               
1 33752U 09008D   12013.78398576  .00002021  00000-0  74368-3 0  6440
2 33752   1.8745 236.0493 7207301 296.4070   8.6322  2.36674149 24326
TACSAT 3                
1 35001U 09028A   12015.17205478  .00065717  00000-0  55988-3 0  8310
2 35001  40.4503 312.6526 0007019 281.0713  78.9317 15.68546675150106
